{"type": "FeatureCollection", "features": [ {"type": "Feature", "properties": {"norad_id": 34833, "name": "IRIDIUM 33 DEB", "group": "iridium-33-debris", "lat": -84.41845159120471, "lon": 12.64520212486968, "alt_km": 740.2150061349676, "timestamp": "2025-12-08T10:52:03.332939+00:00", "meta": {"OBJECT_NAME": "IRIDIUM 33 DEB", "OBJECT_ID": "1997-051MH", "EPOCH": "2025-12-07T16:06:42.958656", "MEAN_MOTION": 14.52331498, "ECCENTRICITY": 0.00217476, "INCLINATION": 86.3933, "RA_OF_ASC_NODE": 53.1785, "ARG_OF_PERICENTER": 114.0848, "MEAN_ANOMALY": 36.8101, "EPHEMERIS_TYPE": 0, "CLASSIFICATION_TYPE": "U", "NORAD_CAT_ID": 34833, "ELEMENT_SET_NO": 999, "REV_AT_EPOCH": 87641, "BSTAR": 0.0013775524, "MEAN_MOTION_DOT": 5.64e-05, "MEAN_MOTION_DDOT": 0}, "tle": {"line1": "1 34833U 97051MH  25341.67133054  .00005640  00000+0  13776-2 0  9997", "line2": "2 34833  86.3933  53.1785 0021747 114.0848  36.8101 14.52331498876416"}}, "geometry": {"type": "Point", "coordinates": [12.64520212486968, -84.41845159120471]}}, {"type": "Feature", "properties": {"norad_id": 34870, "name": "IRIDIUM 33 DEB", "group": "iridium-33-debris", "lat": -56.358512146345326, "lon": 141.6116672150387, "alt_km": 639.5344487668199, "timestamp": "2025-12-08T10:52:03.332950+00:00", "meta": {"OBJECT_NAME": "IRIDIUM 33 DEB", "OBJECT_ID": "1997-051MQ", "EPOCH": "2025-12-07T16:41:29.147136", "MEAN_MOTION": 14.76276846, "ECCENTRICITY": 0.00154613, "INCLINATION": 86.3098, "RA_OF_ASC_NODE": 316.3928, "ARG_OF_PERICENTER": 201.8854, "MEAN_ANOMALY": 332.1192, "EPHEMERIS_TYPE": 0, "CLASSIFICATION_TYPE": "U", "NORAD_CAT_ID": 34870, "ELEMENT_SET_NO": 999, "REV_AT_EPOCH": 88836, "BSTAR": 0.0025960003, "MEAN_MOTION_DOT": 0.00018071, "MEAN_MOTION_DDOT": 0}, "tle": {"line1": "1 34870U 97051MQ  25341.69547624  .00018071  00000+0  25960-2 0  9992", "line2": "2 34870  86.3098 316.3928 0015461 201.8854 332.1192 14.76276846888360"}}, "geometry": {"type": "Point", "coordinates": [141.6116672150387, -56.358512146345326]}}, {"type": "Feature", "properties": {"norad_id": 34896, "name": "IRIDIUM 33 DEB", "group": "iridium-33-debris", "lat": -53.31544324992931, "lon": 153.5521233209127, "alt_km": 663.4396711593881, "timestamp": "2025-12-08T10:52:03.332965+00:00", "meta": {"OBJECT_NAME": "IRIDIUM 33 DEB", "OBJECT_ID": "1997-051MY", "EPOCH": "2025-12-07T22:28:25.315968", "MEAN_MOTION": 14.6620206, "ECCENTRICITY": 0.00239168, "INCLINATION": 86.3288, "RA_OF_ASC_NODE": 328.8394, "ARG_OF_PERICENTER": 232.3363, "MEAN_ANOMALY": 157.0187, "EPHEMERIS_TYPE": 0, "CLASSIFICATION_TYPE": "U", "NORAD_CAT_ID": 34896, "ELEMENT_SET_NO": 999, "REV_AT_EPOCH": 87549, "BSTAR": 0.001346042, "MEAN_MOTION_DOT": 7.462e-05, "MEAN_MOTION_DDOT": 0}, "tle": {"line1": "1 34896U 97051MY  25341.93640412  .00007462  00000+0  13460-2 0  9990", "line2": "2 34896  86.3288 328.8394 0023916 232.3363 157.0187 14.66202060875496"}}, "geometry": {"type": "Point", "coordinates": [153.5521233209127, -53.31544324992931]}}, {"type": "Feature", "properties": {"norad_id": 34926, "name": "IRIDIUM 33 DEB", "group": "iridium-33-debris", "lat": 35.42689212430515, "lon": -172.49874565937742, "alt_km": 761.5348580072132, "timestamp": "2025-12-08T10:52:03.332987+00:00", "meta": {"OBJECT_NAME": "IRIDIUM 33 DEB", "OBJECT_ID": "1997-051NF", "EPOCH": "2025-12-07T13:26:03.158592", "MEAN_MOTION": 14.54055785, "ECCENTRICITY": 0.00761486, "INCLINATION": 86.1317, "RA_OF_ASC_NODE": 10.6739, "ARG_OF_PERICENTER": 310.513, "MEAN_ANOMALY": 202.227, "EPHEMERIS_TYPE": 0, "CLASSIFICATION_TYPE": "U", "NORAD_CAT_ID": 34926, "ELEMENT_SET_NO": 999, "REV_AT_EPOCH": 86381, "BSTAR": 0.0081725405, "MEAN_MOTION_DOT": 0.00036005, "MEAN_MOTION_DDOT": 0}, "tle": {"line1": "1 34926U 97051NF  25341.55975878  .00036005  00000+0  81725-2 0  9993", "line2": "2 34926  86.1317  10.6739 0076148 310.5130 202.2270 14.54055785863812"}}, "geometry": {"type": "Point", "coordinates": [-172.49874565937742, 35.42689212430515]}}, {"type": "Feature", "properties": {"norad_id": 34985, "name": "IRIDIUM 33 DEB", "group": "iridium-33-debris", "lat": 80.79907960442586, "lon": -144.36769111968346, "alt_km": 755.0428832514763, "timestamp": "2025-12-08T10:52:03.333005+00:00", "meta": {"OBJECT_NAME": "IRIDIUM 33 DEB", "OBJECT_ID": "1997-051NR", "EPOCH": "2025-12-07T23:19:57.204768", "MEAN_MOTION": 14.41977282, "ECCENTRICITY": 0.00202615, "INCLINATION": 86.3696, "RA_OF_ASC_NODE": 58.9132, "ARG_OF_PERICENTER": 236.1958, "MEAN_ANOMALY": 249.0046, "EPHEMERIS_TYPE": 0, "CLASSIFICATION_TYPE": "U", "NORAD_CAT_ID": 34985, "ELEMENT_SET_NO": 999, "REV_AT_EPOCH": 87106, "BSTAR": 0.0009890177, "MEAN_MOTION_DOT": 3.268e-05, "MEAN_MOTION_DDOT": 0}, "tle": {"line1": "1 34985U 97051NR  25341.97218987  .00003268  00000+0  98902-3 0  9996", "line2": "2 34985  86.3696  58.9132 0020261 236.1958 249.0046 14.41977282871064"}}, "geometry": {"type": "Point", "coordinates": [-144.36769111968346, 80.79907960442586]}}, {"type": "Feature", "properties": {"norad_id": 35051, "name": "IRIDIUM 33 DEB", "group": "iridium-33-debris", "lat": -54.69052520503121, "lon": 5.523283652422107, "alt_km": 747.5954981648692, "timestamp": "2025-12-08T10:52:03.333021+00:00", "meta": {"OBJECT_NAME": "IRIDIUM 33 DEB", "OBJECT_ID": "1997-051NX", "EPOCH": "2025-12-05T08:27:53.565120", "MEAN_MOTION": 14.47546386, "ECCENTRICITY": 0.00106363, "INCLINATION": 86.3242, "RA_OF_ASC_NODE": 12.0813, "ARG_OF_PERICENTER": 111.2483, "MEAN_ANOMALY": 248.9857, "EPHEMERIS_TYPE": 0, "CLASSIFICATION_TYPE": "U", "NORAD_CAT_ID": 35051, "ELEMENT_SET_NO": 999, "REV_AT_EPOCH": 86889, "BSTAR": 0.0012192117, "MEAN_MOTION_DOT": 4.506e-05, "MEAN_MOTION_DDOT": 0}, "tle": {"line1": "1 35051U 97051NX  25339.35270330  .00004506  00000+0  12192-2 0  9992", "line2": "2 35051  86.3242  12.0813 0010636 111.2483 248.9857 14.47546386868892"}}, "geometry": {"type": "Point", "coordinates": [5.523283652422107, -54.69052520503121]}}, {"type": "Feature", "properties": {"norad_id": 35052, "name": "IRIDIUM 33 DEB", "group": "iridium-33-debris", "lat": -54.55633906865305, "lon": -152.5144299587419, "alt_km": 777.8699469642479, "timestamp": "2025-12-08T10:52:03.333038+00:00", "meta": {"OBJECT_NAME": "IRIDIUM 33 DEB", "OBJECT_ID": "1997-051NY", "EPOCH": "2025-12-07T20:25:31.207296", "MEAN_MOTION": 14.38483382, "ECCENTRICITY": 0.00136742, "INCLINATION": 86.3314, "RA_OF_ASC_NODE": 22.5721, "ARG_OF_PERICENTER": 98.6502, "MEAN_ANOMALY": 261.6246, "EPHEMERIS_TYPE": 0, "CLASSIFICATION_TYPE": "U", "NORAD_CAT_ID": 35052, "ELEMENT_SET_NO": 999, "REV_AT_EPOCH": 87205, "BSTAR": 0.00029940676, "MEAN_MOTION_DOT": 9.35e-06, "MEAN_MOTION_DDOT": 0}, "tle": {"line1": "1 35052U 97051NY  25341.85105564  .00000935  00000+0  29941-3 0  9990", "line2": "2 35052  86.3314  22.5721 0013674  98.6502 261.6246 14.38483382872055"}}, "geometry": {"type": "Point", "coordinates": [-152.5144299587419, -54.55633906865305]}}, {"type": "Feature", "properties": {"norad_id": 35080, "name": "IRIDIUM 33 DEB", "group": "iridium-33-debris", "lat": 42.38984357178383, "lon": 57.89495366571991, "alt_km": 648.4129225374127, "timestamp": "2025-12-08T10:52:03.333054+00:00", "meta": {"OBJECT_NAME": "IRIDIUM 33 DEB", "OBJECT_ID": "1997-051PF", "EPOCH": "2025-12-07T03:56:57.228000", "MEAN_MOTION": 14.84984073, "ECCENTRICITY": 0.00622366, "INCLINATION": 86.2081, "RA_OF_ASC_NODE": 55.0388, "ARG_OF_PERICENTER": 201.0012, "MEAN_ANOMALY": 158.8655, "EPHEMERIS_TYPE": 0, "CLASSIFICATION_TYPE": "U", "NORAD_CAT_ID": 35080, "ELEMENT_SET_NO": 999, "REV_AT_EPOCH": 69605, "BSTAR": 0.011261596, "MEAN_MOTION_DOT": 0.00100643, "MEAN_MOTION_DDOT": 0}, "tle": {"line1": "1 35080U 97051PF  25341.16455125  .00100643  00000+0  11262-1 0  9998", "line2": "2 35080  86.2081  55.0388 0062236 201.0012 158.8655 14.84984073696059"}}, "geometry": {"type": "Point", "coordinates": [57.89495366571991, 42.38984357178383]}}, {"type": "Feature", "properties": {"norad_id": 35297, "name": "IRIDIUM 33 DEB", "group": "iridium-33-debris", "lat": 38.594132364535305, "lon": 67.48057165963846, "alt_km": 743.7938342112511, "timestamp": "2025-12-08T10:52:03.333070+00:00", "meta": {"OBJECT_NAME": "IRIDIUM 33 DEB", "OBJECT_ID": "1997-051PM", "EPOCH": "2025-12-06T00:31:29.302752", "MEAN_MOTION": 14.45108459, "ECCENTRICITY": 0.00170329, "INCLINATION": 86.3867, "RA_OF_ASC_NODE": 65.6268, "ARG_OF_PERICENTER": 161.2449, "MEAN_ANOMALY": 198.9384, "EPHEMERIS_TYPE": 0, "CLASSIFICATION_TYPE": "U", "NORAD_CAT_ID": 35297, "ELEMENT_SET_NO": 999, "REV_AT_EPOCH": 70329, "BSTAR": 0.0012426888, "MEAN_MOTION_DOT": 4.371e-05, "MEAN_MOTION_DDOT": 0}, "tle": {"line1": "1 35297U 97051PM  25340.02186693  .00004371  00000+0  12427-2 0  9999", "line2": "2 35297  86.3867  65.6268 0017032 161.2449 198.9384 14.45108459703293"}}, "geometry": {"type": "Point", "coordinates": [67.48057165963846, 38.594132364535305]}}, {"type": "Feature", "properties": {"norad_id": 35299, "name": "IRIDIUM 33 DEB", "group": "iridium-33-debris", "lat": 37.15407085771893, "lon": 37.87226356449326, "alt_km": 744.6646495246068, "timestamp": "2025-12-08T10:52:03.333086+00:00", "meta": {"OBJECT_NAME": "IRIDIUM 33 DEB", "OBJECT_ID": "1997-051PP", "EPOCH": "2025-12-07T21:55:49.054080", "MEAN_MOTION": 14.4082407, "ECCENTRICITY": 0.00588567, "INCLINATION": 86.2883, "RA_OF_ASC_NODE": 35.2873, "ARG_OF_PERICENTER": 117.7399, "MEAN_ANOMALY": 5.9721, "EPHEMERIS_TYPE": 0, "CLASSIFICATION_TYPE": "U", "NORAD_CAT_ID": 35299, "ELEMENT_SET_NO": 999, "REV_AT_EPOCH": 86261, "BSTAR": 0.0010762038, "MEAN_MOTION_DOT": 3.537e-05, "MEAN_MOTION_DDOT": 0}, "tle": {"line1": "1 35299U 97051PP  25341.91376220  .00003537  00000+0  10762-2 0  9990", "line2": "2 35299  86.2883  35.2873 0058856 117.7399   5.9721 14.40824070862619"}}, "geometry": {"type": "Point", "coordinates": [37.87226356449326, 37.15407085771893]}}]}